[
    {
        "Altitude(m)": 610399.5586268468,
        "Argument of Periapsis(deg)": 0.0,
        "Eccentricity": 0.0,
        "Inclination(deg)": 60.0,
        "Latitude(deg)": 52.11141712455122,
        "Longitude(deg)": 37.5841763367517,
        "Mean Anomaly(deg)": 65.45449999999998,
        "RAAN(deg)": 90.0,
        "Satellite Name": "Test1 400",
        "Satellite Number": 400,
        "Semi-Major Axis(m)": 6980739.136638005,
        "Time(s)": 0
    },
    {
        "Altitude(m)": 610481.710112896,
        "Argument of Periapsis(deg)": 0.00010418945913296404,
        "Eccentricity": 0.0,
        "Inclination(deg)": 60.0,
        "Latitude(deg)": 52.47102074621731,
        "Longitude(deg)": 38.36631233212921,
        "Mean Anomaly(deg)": 66.07460614546183,
        "RAAN(deg)": 89.99957995086027,
        "Satellite Name": "Test1 400",
        "Satellite Number": 400,
        "Semi-Major Axis(m)": 6980739.136638005,
        "Time(s)": 10
    }
]